RADARSAT-2              
1 32382U 07061A   26167.19816168  .00000305  00000+0  13500-3 0  9993
2 32382  98.5770 174.1445 0001312  83.6005 276.5326 14.29982487965815
RESOURCESAT-2           
1 37387U 11015A   26167.17403446  .00000056  00000+0  45552-4 0  9992
2 37387  98.7644 234.6228 0010188 258.7394 101.2638 14.21606198786034
RASAT                   
1 37791U 11044D   26167.22189897  .00000192  00000+0  41771-4 0  9990
2 37791  98.0583 258.6331 0020110 191.8556 222.1621 14.68164701793046
RESOURCESAT-2A          
1 41877U 16074A   26167.15583010 -.00000099  00000+0 -25134-4 0  9998
2 41877  98.7534 240.6682 0003352  86.0699 274.0861 14.21615639494153
RCM-1                   
1 44322U 19033A   26166.52565544 -.00000042  00000+0  13254-5 0  9994
2 44322  97.7601 173.9941 0001429  91.7914 268.3469 14.92587391381838
RCM-3                   
1 44323U 19033B   26167.21865644 -.00000026  00000+0  28529-5 0  9999
2 44323  97.7599 174.7719 0001490  91.8534 268.2856 14.92586319381955
RCM-2                   
1 44324U 19033C   26167.03974682 -.00000077  00000+0 -20414-5 0  9995
2 44324  97.7614 174.5455 0001410  90.4275 269.7106 14.92586215381913
QPS-SAR-7 (TSUKUYOMI-II)
1 59447U 24066F   26167.17513444  .00005762  00000+0  37507-3 0  9992
2 59447  45.6038 250.6494 0002783 297.8311  62.2292 15.08925739120070
QPS-SAR-8 (AMATERU-IV)  
1 60542U 24149CC  26167.19578432  .00003627  00000+0  26600-3 0  9992
2 60542  97.6665 246.3544 0004861 110.2325 249.9424 15.04126787100128
QPS-SAR-9 (SUSANOO-I)   
1 63205U 25050A   26167.18826928  .00004303  00000+0  32692-3 0  9998
2 63205  42.0190 107.7573 0003551 165.6935 194.3993 15.03132712 68819
