{
 "generated_at": "2026-06-16T10:08:45Z",
 "sources": [
  {
   "name": "CelesTrak",
   "url": "https://celestrak.org/NORAD/elements/",
   "license": "frei verfügbar; Attribution. Ursprünglich USSPACECOM/Space-Track."
  },
  {
   "name": "GCAT (J. McDowell, planet4589.org)",
   "url": "https://planet4589.org/space/gcat/",
   "license": "CC-BY 4.0"
  }
 ],
 "satellites": [
  {
   "norad": 59447,
   "name": "QPS-SAR-7 (TSUKUYOMI-II)",
   "intl": "2024-066F",
   "group": "sar",
   "gcat": {
    "class": "B",
    "category": "IMG-R",
    "owner": "QPS",
    "state": "J"
   },
   "omm": {
    "OBJECT_NAME": "QPS-SAR-7 (TSUKUYOMI-II)",
    "OBJECT_ID": "2024-066F",
    "EPOCH": "2026-06-16T04:12:11.615616",
    "MEAN_MOTION": 15.08925739,
    "ECCENTRICITY": 0.0002783,
    "INCLINATION": 45.6038,
    "RA_OF_ASC_NODE": 250.6494,
    "ARG_OF_PERICENTER": 297.8311,
    "MEAN_ANOMALY": 62.2292,
    "EPHEMERIS_TYPE": 0,
    "CLASSIFICATION_TYPE": "U",
    "NORAD_CAT_ID": 59447,
    "ELEMENT_SET_NO": 999,
    "REV_AT_EPOCH": 12007,
    "BSTAR": 0.00037507,
    "MEAN_MOTION_DOT": 0.00005762,
    "MEAN_MOTION_DDOT": 0
   }
  },
  {
   "norad": 60542,
   "name": "QPS-SAR-8 (AMATERU-IV)",
   "intl": "2024-149CC",
   "group": "sar",
   "gcat": {
    "class": "B",
    "category": "IMG-R",
    "owner": "QPS",
    "state": "J"
   },
   "omm": {
    "OBJECT_NAME": "QPS-SAR-8 (AMATERU-IV)",
    "OBJECT_ID": "2024-149CC",
    "EPOCH": "2026-06-16T04:41:55.765248",
    "MEAN_MOTION": 15.04126787,
    "ECCENTRICITY": 0.0004861,
    "INCLINATION": 97.6665,
    "RA_OF_ASC_NODE": 246.3544,
    "ARG_OF_PERICENTER": 110.2325,
    "MEAN_ANOMALY": 249.9424,
    "EPHEMERIS_TYPE": 0,
    "CLASSIFICATION_TYPE": "U",
    "NORAD_CAT_ID": 60542,
    "ELEMENT_SET_NO": 999,
    "REV_AT_EPOCH": 10012,
    "BSTAR": 0.000266,
    "MEAN_MOTION_DOT": 0.00003627,
    "MEAN_MOTION_DDOT": 0
   }
  },
  {
   "norad": 63205,
   "name": "QPS-SAR-9 (SUSANOO-I)",
   "intl": "2025-050A",
   "group": "sar",
   "gcat": {
    "class": "B",
    "category": "IMG-R",
    "owner": "QPS",
    "state": "J"
   },
   "omm": {
    "OBJECT_NAME": "QPS-SAR-9 (SUSANOO-I)",
    "OBJECT_ID": "2025-050A",
    "EPOCH": "2026-06-16T04:31:06.465792",
    "MEAN_MOTION": 15.03132712,
    "ECCENTRICITY": 0.0003551,
    "INCLINATION": 42.019,
    "RA_OF_ASC_NODE": 107.7573,
    "ARG_OF_PERICENTER": 165.6935,
    "MEAN_ANOMALY": 194.3993,
    "EPHEMERIS_TYPE": 0,
    "CLASSIFICATION_TYPE": "U",
    "NORAD_CAT_ID": 63205,
    "ELEMENT_SET_NO": 999,
    "REV_AT_EPOCH": 6881,
    "BSTAR": 0.00032692,
    "MEAN_MOTION_DOT": 0.00004303,
    "MEAN_MOTION_DDOT": 0
   }
  },
  {
   "norad": 32382,
   "name": "RADARSAT-2",
   "intl": "2007-061A",
   "group": "resource",
   "gcat": {
    "class": "C",
    "category": "IMG-R",
    "owner": "CSA",
    "state": "CA"
   },
   "omm": {
    "OBJECT_NAME": "RADARSAT-2",
    "OBJECT_ID": "2007-061A",
    "EPOCH": "2026-06-16T04:45:21.169152",
    "MEAN_MOTION": 14.29982487,
    "ECCENTRICITY": 0.0001312,
    "INCLINATION": 98.577,
    "RA_OF_ASC_NODE": 174.1445,
    "ARG_OF_PERICENTER": 83.6005,
    "MEAN_ANOMALY": 276.5326,
    "EPHEMERIS_TYPE": 0,
    "CLASSIFICATION_TYPE": "U",
    "NORAD_CAT_ID": 32382,
    "ELEMENT_SET_NO": 999,
    "REV_AT_EPOCH": 96581,
    "BSTAR": 0.000135,
    "MEAN_MOTION_DOT": 0.00000305,
    "MEAN_MOTION_DDOT": 0
   }
  },
  {
   "norad": 37791,
   "name": "RASAT",
   "intl": "2011-044D",
   "group": "resource",
   "gcat": {
    "class": null,
    "category": null,
    "owner": null,
    "state": null
   },
   "omm": {
    "OBJECT_NAME": "RASAT",
    "OBJECT_ID": "2011-044D",
    "EPOCH": "2026-06-16T05:19:32.071008",
    "MEAN_MOTION": 14.68164701,
    "ECCENTRICITY": 0.002011,
    "INCLINATION": 98.0583,
    "RA_OF_ASC_NODE": 258.6331,
    "ARG_OF_PERICENTER": 191.8556,
    "MEAN_ANOMALY": 222.1621,
    "EPHEMERIS_TYPE": 0,
    "CLASSIFICATION_TYPE": "U",
    "NORAD_CAT_ID": 37791,
    "ELEMENT_SET_NO": 999,
    "REV_AT_EPOCH": 79304,
    "BSTAR": 0.000041771,
    "MEAN_MOTION_DOT": 0.00000192,
    "MEAN_MOTION_DDOT": 0
   }
  },
  {
   "norad": 44322,
   "name": "RCM-1",
   "intl": "2019-033A",
   "group": "sar",
   "gcat": {
    "class": "C",
    "category": "IMG-R",
    "owner": "CSA",
    "state": "CA"
   },
   "omm": {
    "OBJECT_NAME": "RCM-1",
    "OBJECT_ID": "2019-033A",
    "EPOCH": "2026-06-15T12:36:56.630016",
    "MEAN_MOTION": 14.92587391,
    "ECCENTRICITY": 0.00014294,
    "INCLINATION": 97.7601,
    "RA_OF_ASC_NODE": 173.9941,
    "ARG_OF_PERICENTER": 91.7914,
    "MEAN_ANOMALY": 268.3469,
    "EPHEMERIS_TYPE": 0,
    "CLASSIFICATION_TYPE": "U",
    "NORAD_CAT_ID": 44322,
    "ELEMENT_SET_NO": 999,
    "REV_AT_EPOCH": 38183,
    "BSTAR": 0.000001325365,
    "MEAN_MOTION_DOT": -4.2e-7,
    "MEAN_MOTION_DDOT": 0
   }
  },
  {
   "norad": 44324,
   "name": "RCM-2",
   "intl": "2019-033C",
   "group": "sar",
   "gcat": {
    "class": "C",
    "category": "IMG-R",
    "owner": "CSA",
    "state": "CA"
   },
   "omm": {
    "OBJECT_NAME": "RCM-2",
    "OBJECT_ID": "2019-033C",
    "EPOCH": "2026-06-16T00:57:14.125248",
    "MEAN_MOTION": 14.92586215,
    "ECCENTRICITY": 0.000141,
    "INCLINATION": 97.7614,
    "RA_OF_ASC_NODE": 174.5455,
    "ARG_OF_PERICENTER": 90.4275,
    "MEAN_ANOMALY": 269.7106,
    "EPHEMERIS_TYPE": 0,
    "CLASSIFICATION_TYPE": "U",
    "NORAD_CAT_ID": 44324,
    "ELEMENT_SET_NO": 999,
    "REV_AT_EPOCH": 38191,
    "BSTAR": -0.0000020414,
    "MEAN_MOTION_DOT": -7.7e-7,
    "MEAN_MOTION_DDOT": 0
   }
  },
  {
   "norad": 44323,
   "name": "RCM-3",
   "intl": "2019-033B",
   "group": "sar",
   "gcat": {
    "class": "C",
    "category": "IMG-R",
    "owner": "CSA",
    "state": "CA"
   },
   "omm": {
    "OBJECT_NAME": "RCM-3",
    "OBJECT_ID": "2019-033B",
    "EPOCH": "2026-06-16T05:14:51.916416",
    "MEAN_MOTION": 14.92586319,
    "ECCENTRICITY": 0.000149,
    "INCLINATION": 97.7599,
    "RA_OF_ASC_NODE": 174.7719,
    "ARG_OF_PERICENTER": 91.8534,
    "MEAN_ANOMALY": 268.2856,
    "EPHEMERIS_TYPE": 0,
    "CLASSIFICATION_TYPE": "U",
    "NORAD_CAT_ID": 44323,
    "ELEMENT_SET_NO": 999,
    "REV_AT_EPOCH": 38195,
    "BSTAR": 0.0000028529,
    "MEAN_MOTION_DOT": -2.6e-7,
    "MEAN_MOTION_DDOT": 0
   }
  },
  {
   "norad": 37387,
   "name": "RESOURCESAT-2",
   "intl": "2011-015A",
   "group": "resource",
   "gcat": {
    "class": null,
    "category": "IMG",
    "owner": "ISRO",
    "state": "IN"
   },
   "omm": {
    "OBJECT_NAME": "RESOURCESAT-2",
    "OBJECT_ID": "2011-015A",
    "EPOCH": "2026-06-16T04:10:36.577344",
    "MEAN_MOTION": 14.21606198,
    "ECCENTRICITY": 0.0010188,
    "INCLINATION": 98.7644,
    "RA_OF_ASC_NODE": 234.6228,
    "ARG_OF_PERICENTER": 258.7394,
    "MEAN_ANOMALY": 101.2638,
    "EPHEMERIS_TYPE": 0,
    "CLASSIFICATION_TYPE": "U",
    "NORAD_CAT_ID": 37387,
    "ELEMENT_SET_NO": 999,
    "REV_AT_EPOCH": 78603,
    "BSTAR": 0.000045552,
    "MEAN_MOTION_DOT": 5.6e-7,
    "MEAN_MOTION_DDOT": 0
   }
  },
  {
   "norad": 41877,
   "name": "RESOURCESAT-2A",
   "intl": "2016-074A",
   "group": "resource",
   "gcat": {
    "class": "C",
    "category": "IMG",
    "owner": "ISRO",
    "state": "IN"
   },
   "omm": {
    "OBJECT_NAME": "RESOURCESAT-2A",
    "OBJECT_ID": "2016-074A",
    "EPOCH": "2026-06-16T03:44:23.720640",
    "MEAN_MOTION": 14.21615639,
    "ECCENTRICITY": 0.0003352,
    "INCLINATION": 98.7534,
    "RA_OF_ASC_NODE": 240.6682,
    "ARG_OF_PERICENTER": 86.0699,
    "MEAN_ANOMALY": 274.0861,
    "EPHEMERIS_TYPE": 0,
    "CLASSIFICATION_TYPE": "U",
    "NORAD_CAT_ID": 41877,
    "ELEMENT_SET_NO": 999,
    "REV_AT_EPOCH": 49415,
    "BSTAR": -0.000025134,
    "MEAN_MOTION_DOT": -9.9e-7,
    "MEAN_MOTION_DDOT": 0
   }
  }
 ]
}
